SL-14 R/B               
1 16792U 86046B   26085.98278231  .00000512  00000+0  56118-4 0  9992
2 16792  82.4799  63.8374 0023393 167.0572 193.1249 14.85606659128971
SL-14 R/B               
1 16882U 86055B   26085.44929135  .00000433  00000+0  47073-4 0  9991
2 16882  82.5173 110.9177 0017314 277.3750 199.4452 14.85656958121854
AJISAI (EGS)            
1 16908U 86061A   26085.98701067 -.00000099  00000+0 -12499-4 0  9992
2 16908  50.0108  40.1567 0011326 331.5612 122.5488 12.44515627470151
SL-14 R/B               
1 17567U 87024B   26085.94254691  .00000508  00000+0  55044-4 0  9992
2 17567  82.5250  76.5427 0017638 198.8823 161.1742 14.86148145 90693
COSMOS 1833             
1 17589U 87027A   26085.92061523 -.00000277  00000+0 -12214-3 0  9993
2 17589  70.9175 289.8021 0023369 189.2838 170.7855 14.13048379 12751
SL-16 R/B               
1 17590U 87027B   26085.91488760 -.00000148  00000+0 -49478-4 0  9990
2 17590  71.0012 240.1934 0002852 100.8099 259.3346 14.17165688 17784
SL-14 R/B               
1 17912U 87038B   26085.94637954  .00000491  00000+0  54046-4 0  9990
2 17912  82.4978 280.5467 0020716 106.4307 253.9188 14.85384310 81797
COSMOS 1844             
1 17973U 87041A   26085.93746303  .00000334  00000+0  19829-3 0  9994
2 17973  70.9013 357.7969 0030919 352.7193   7.3475 14.14555067  6029
SL-14 R/B               
1 18153U 87055B   26085.11197072  .00000423  00000+0  45893-4 0  9993
2 18153  82.5012 333.5567 0019698 322.9634  37.0221 14.85645523 72379
COSMOS 1867             
1 18187U 87060A   26085.83678128 -.00000003  00000+0  36355-4 0  9999
2 18187  65.0091 258.6824 0014773 279.6678  80.2738 14.31505590 22397
SL-14 R/B               
1 18749U 88001B   26085.84939300  .00000502  00000+0  55112-4 0  9997
2 18749  82.5162 179.2260 0018163 176.8936 183.2396 14.85546412 44573
COSMOS 1933             
1 18958U 88020A   26085.86219372  .00004527  00000+0  22030-3 0  9995
2 18958  82.5119 233.9171 0005104 130.6300 229.5379 15.18142712 52835
