CCSDS_OMM_VERS = 2.0
CREATION_DATE  = 
ORIGINATOR     = 

OBJECT_NAME    = SL-14 R/B
OBJECT_ID      = 1986-046B
CENTER_NAME    = EARTH
REF_FRAME      = TEME
TIME_SYSTEM    = UTC
MEAN_ELEMENT_THEORY = SGP/SGP4

EPOCH          = 2026-03-26T23:35:12.391584
MEAN_MOTION    = 14.85606659
ECCENTRICITY   = .00233931
INCLINATION    = 82.4799
RA_OF_ASC_NODE = 63.8374
ARG_OF_PERICENTER = 167.0572
MEAN_ANOMALY   = 193.1249

EPHEMERIS_TYPE = 0
CLASSIFICATION_TYPE = U
NORAD_CAT_ID   = 16792
ELEMENT_SET_NO = 999
REV_AT_EPOCH   = 12897
BSTAR          = .56118051E-4
MEAN_MOTION_DOT = .512E-5
MEAN_MOTION_DDOT = 0

CCSDS_OMM_VERS = 2.0
CREATION_DATE  = 
ORIGINATOR     = 

OBJECT_NAME    = SL-14 R/B
OBJECT_ID      = 1986-055B
CENTER_NAME    = EARTH
REF_FRAME      = TEME
TIME_SYSTEM    = UTC
MEAN_ELEMENT_THEORY = SGP/SGP4

EPOCH          = 2026-03-26T10:46:58.772640
MEAN_MOTION    = 14.85656958
ECCENTRICITY   = .00173143
INCLINATION    = 82.5173
RA_OF_ASC_NODE = 110.9177
ARG_OF_PERICENTER = 277.3750
MEAN_ANOMALY   = 199.4452

EPHEMERIS_TYPE = 0
CLASSIFICATION_TYPE = U
NORAD_CAT_ID   = 16882
ELEMENT_SET_NO = 999
REV_AT_EPOCH   = 12185
BSTAR          = .47073178E-4
MEAN_MOTION_DOT = .433E-5
MEAN_MOTION_DDOT = 0

CCSDS_OMM_VERS = 2.0
CREATION_DATE  = 
ORIGINATOR     = 

OBJECT_NAME    = AJISAI (EGS)
OBJECT_ID      = 1986-061A
CENTER_NAME    = EARTH
REF_FRAME      = TEME
TIME_SYSTEM    = UTC
MEAN_ELEMENT_THEORY = SGP/SGP4

EPOCH          = 2026-03-26T23:41:17.721888
MEAN_MOTION    = 12.44515627
ECCENTRICITY   = .00113269
INCLINATION    = 50.0108
RA_OF_ASC_NODE = 40.1567
ARG_OF_PERICENTER = 331.5612
MEAN_ANOMALY   = 122.5488

EPHEMERIS_TYPE = 0
CLASSIFICATION_TYPE = U
NORAD_CAT_ID   = 16908
ELEMENT_SET_NO = 999
REV_AT_EPOCH   = 47015
BSTAR          = -.12498646E-4
MEAN_MOTION_DOT = -.99E-6
MEAN_MOTION_DDOT = 0

CCSDS_OMM_VERS = 2.0
CREATION_DATE  = 
ORIGINATOR     = 

OBJECT_NAME    = SL-14 R/B
OBJECT_ID      = 1987-024B
CENTER_NAME    = EARTH
REF_FRAME      = TEME
TIME_SYSTEM    = UTC
MEAN_ELEMENT_THEORY = SGP/SGP4

EPOCH          = 2026-03-26T22:37:16.053024
MEAN_MOTION    = 14.86148145
ECCENTRICITY   = .00176383
INCLINATION    = 82.5250
RA_OF_ASC_NODE = 76.5427
ARG_OF_PERICENTER = 198.8823
MEAN_ANOMALY   = 161.1742

EPHEMERIS_TYPE = 0
CLASSIFICATION_TYPE = U
NORAD_CAT_ID   = 17567
ELEMENT_SET_NO = 999
REV_AT_EPOCH   = 9069
BSTAR          = .55044348E-4
MEAN_MOTION_DOT = .508E-5
MEAN_MOTION_DDOT = 0

CCSDS_OMM_VERS = 2.0
CREATION_DATE  = 
ORIGINATOR     = 

OBJECT_NAME    = COSMOS 1833
OBJECT_ID      = 1987-027A
CENTER_NAME    = EARTH
REF_FRAME      = TEME
TIME_SYSTEM    = UTC
MEAN_ELEMENT_THEORY = SGP/SGP4

EPOCH          = 2026-03-26T22:05:41.155872
MEAN_MOTION    = 14.13048379
ECCENTRICITY   = .00233692
INCLINATION    = 70.9175
RA_OF_ASC_NODE = 289.8021
ARG_OF_PERICENTER = 189.2838
MEAN_ANOMALY   = 170.7855

EPHEMERIS_TYPE = 0
CLASSIFICATION_TYPE = U
NORAD_CAT_ID   = 17589
ELEMENT_SET_NO = 999
REV_AT_EPOCH   = 1275
BSTAR          = -.12214359E-3
MEAN_MOTION_DOT = -.277E-5
MEAN_MOTION_DDOT = 0

CCSDS_OMM_VERS = 2.0
CREATION_DATE  = 
ORIGINATOR     = 

OBJECT_NAME    = SL-16 R/B
OBJECT_ID      = 1987-027B
CENTER_NAME    = EARTH
REF_FRAME      = TEME
TIME_SYSTEM    = UTC
MEAN_ELEMENT_THEORY = SGP/SGP4

EPOCH          = 2026-03-26T21:57:26.288640
MEAN_MOTION    = 14.17165688
ECCENTRICITY   = .0002852
INCLINATION    = 71.0012
RA_OF_ASC_NODE = 240.1934
ARG_OF_PERICENTER = 100.8099
MEAN_ANOMALY   = 259.3346

EPHEMERIS_TYPE = 0
CLASSIFICATION_TYPE = U
NORAD_CAT_ID   = 17590
ELEMENT_SET_NO = 999
REV_AT_EPOCH   = 1778
BSTAR          = -.49478146E-4
MEAN_MOTION_DOT = -.148E-5
MEAN_MOTION_DDOT = 0

CCSDS_OMM_VERS = 2.0
CREATION_DATE  = 
ORIGINATOR     = 

OBJECT_NAME    = SL-14 R/B
OBJECT_ID      = 1987-038B
CENTER_NAME    = EARTH
REF_FRAME      = TEME
TIME_SYSTEM    = UTC
MEAN_ELEMENT_THEORY = SGP/SGP4

EPOCH          = 2026-03-26T22:42:47.192256
MEAN_MOTION    = 14.85384310
ECCENTRICITY   = .00207163
INCLINATION    = 82.4978
RA_OF_ASC_NODE = 280.5467
ARG_OF_PERICENTER = 106.4307
MEAN_ANOMALY   = 253.9188

EPHEMERIS_TYPE = 0
CLASSIFICATION_TYPE = U
NORAD_CAT_ID   = 17912
ELEMENT_SET_NO = 999
REV_AT_EPOCH   = 8179
BSTAR          = .54045652E-4
MEAN_MOTION_DOT = .491E-5
MEAN_MOTION_DDOT = 0

CCSDS_OMM_VERS = 2.0
CREATION_DATE  = 
ORIGINATOR     = 

OBJECT_NAME    = COSMOS 1844
OBJECT_ID      = 1987-041A
CENTER_NAME    = EARTH
REF_FRAME      = TEME
TIME_SYSTEM    = UTC
MEAN_ELEMENT_THEORY = SGP/SGP4

EPOCH          = 2026-03-26T22:29:56.805792
MEAN_MOTION    = 14.14555067
ECCENTRICITY   = .00309195
INCLINATION    = 70.9013
RA_OF_ASC_NODE = 357.7969
ARG_OF_PERICENTER = 352.7193
MEAN_ANOMALY   = 7.3475

EPHEMERIS_TYPE = 0
CLASSIFICATION_TYPE = U
NORAD_CAT_ID   = 17973
ELEMENT_SET_NO = 999
REV_AT_EPOCH   = 602
BSTAR          = .19829269E-3
MEAN_MOTION_DOT = .334E-5
MEAN_MOTION_DDOT = 0

CCSDS_OMM_VERS = 2.0
CREATION_DATE  = 
ORIGINATOR     = 

OBJECT_NAME    = SL-14 R/B
OBJECT_ID      = 1987-055B
CENTER_NAME    = EARTH
REF_FRAME      = TEME
TIME_SYSTEM    = UTC
MEAN_ELEMENT_THEORY = SGP/SGP4

EPOCH          = 2026-03-26T02:41:14.270208
MEAN_MOTION    = 14.85645523
ECCENTRICITY   = .00196984
INCLINATION    = 82.5012
RA_OF_ASC_NODE = 333.5567
ARG_OF_PERICENTER = 322.9634
MEAN_ANOMALY   = 37.0221

EPHEMERIS_TYPE = 0
CLASSIFICATION_TYPE = U
NORAD_CAT_ID   = 18153
ELEMENT_SET_NO = 999
REV_AT_EPOCH   = 7237
BSTAR          = .45892627E-4
MEAN_MOTION_DOT = .423E-5
MEAN_MOTION_DDOT = 0

CCSDS_OMM_VERS = 2.0
CREATION_DATE  = 
ORIGINATOR     = 

OBJECT_NAME    = COSMOS 1867
OBJECT_ID      = 1987-060A
CENTER_NAME    = EARTH
REF_FRAME      = TEME
TIME_SYSTEM    = UTC
MEAN_ELEMENT_THEORY = SGP/SGP4

EPOCH          = 2026-03-26T20:04:57.902592
MEAN_MOTION    = 14.31505590
ECCENTRICITY   = .00147731
INCLINATION    = 65.0091
RA_OF_ASC_NODE = 258.6824
ARG_OF_PERICENTER = 279.6678
MEAN_ANOMALY   = 80.2738

EPHEMERIS_TYPE = 0
CLASSIFICATION_TYPE = U
NORAD_CAT_ID   = 18187
ELEMENT_SET_NO = 999
REV_AT_EPOCH   = 2239
BSTAR          = .36354995E-4
MEAN_MOTION_DOT = -.3E-7
MEAN_MOTION_DDOT = 0

CCSDS_OMM_VERS = 2.0
CREATION_DATE  = 
ORIGINATOR     = 

OBJECT_NAME    = SL-14 R/B
OBJECT_ID      = 1988-001B
CENTER_NAME    = EARTH
REF_FRAME      = TEME
TIME_SYSTEM    = UTC
MEAN_ELEMENT_THEORY = SGP/SGP4

EPOCH          = 2026-03-26T20:23:07.555200
MEAN_MOTION    = 14.85546412
ECCENTRICITY   = .00181631
INCLINATION    = 82.5162
RA_OF_ASC_NODE = 179.2260
ARG_OF_PERICENTER = 176.8936
MEAN_ANOMALY   = 183.2396

EPHEMERIS_TYPE = 0
CLASSIFICATION_TYPE = U
NORAD_CAT_ID   = 18749
ELEMENT_SET_NO = 999
REV_AT_EPOCH   = 4457
BSTAR          = .55112244E-4
MEAN_MOTION_DOT = .502E-5
MEAN_MOTION_DDOT = 0

CCSDS_OMM_VERS = 2.0
CREATION_DATE  = 
ORIGINATOR     = 

OBJECT_NAME    = COSMOS 1933
OBJECT_ID      = 1988-020A
CENTER_NAME    = EARTH
REF_FRAME      = TEME
TIME_SYSTEM    = UTC
MEAN_ELEMENT_THEORY = SGP/SGP4

EPOCH          = 2026-03-26T20:41:33.537408
MEAN_MOTION    = 15.18142712
ECCENTRICITY   = .00051048
INCLINATION    = 82.5119
RA_OF_ASC_NODE = 233.9171
ARG_OF_PERICENTER = 130.6300
MEAN_ANOMALY   = 229.5379

EPHEMERIS_TYPE = 0
CLASSIFICATION_TYPE = U
NORAD_CAT_ID   = 18958
ELEMENT_SET_NO = 999
REV_AT_EPOCH   = 5283
BSTAR          = .2203035E-3
MEAN_MOTION_DOT = .4527E-4
MEAN_MOTION_DDOT = 0

